[{"OBJECT_NAME":"STARLINK-31728","OBJECT_ID":"2024-071N","EPOCH":"2026-03-09T02:04:28.147296","MEAN_MOTION":15.27551096,"ECCENTRICITY":0.00019046,"INCLINATION":43.0043,"RA_OF_ASC_NODE":343.1232,"ARG_OF_PERICENTER":251.6182,"MEAN_ANOMALY":108.4463,"EPHEMERIS_TYPE":0,"CLASSIFICATION_TYPE":"U","NORAD_CAT_ID":59496,"ELEMENT_SET_NO":999,"REV_AT_EPOCH":10811,"BSTAR":0.0010473047,"MEAN_MOTION_DOT":0.00028644,"MEAN_MOTION_DDOT":0},{"OBJECT_NAME":"FLOCK 4G-36","OBJECT_ID":"2025-009BU","EPOCH":"2026-03-09T16:58:27.533568","MEAN_MOTION":15.27209548,"ECCENTRICITY":0.00034736,"INCLINATION":97.4053,"RA_OF_ASC_NODE":151.0513,"ARG_OF_PERICENTER":324.2456,"MEAN_ANOMALY":35.855,"EPHEMERIS_TYPE":0,"CLASSIFICATION_TYPE":"U","NORAD_CAT_ID":62675,"ELEMENT_SET_NO":999,"REV_AT_EPOCH":6370,"BSTAR":0.00051121743,"MEAN_MOTION_DOT":0.00013573,"MEAN_MOTION_DDOT":0}]
